NORAD_CAT_ID,OBJECT_NAME,OBJECT_TYPE,EPOCH,MEAN_MOTION,ECCENTRICITY,INCLINATION,RA_OF_ASC_NODE,ARG_OF_PERICENTER,MEAN_ANOMALY,BSTAR,MEAN_MOTION_DOT,MEAN_MOTION_DDOT,TLE_LINE0,TLE_LINE1,TLE_LINE2,SEMIMAJOR_AXIS,PERIOD,APOGEE,PERIGEE,DECAYED
52365.0,STARLINK-3874,PAYLOAD,2022-12-06 02:54:30,15.08844012,0.0002652,53.2184,129.2915,57.2748,302.8499,8.0862e-05,9.99e-06,0.0,0 STARLINK-3874,1 52365U 22045AL  22340.12118411  .00000999  00000-0  80862-4 0  9999,2 52365  53.2184 129.2915 0002652  57.2748 302.8499 15.08844012 36336,6917.868,95.437,541.568,537.899,0.0
52365.0,STARLINK-3874,PAYLOAD,2022-12-06 10:51:26,15.08841199,0.0002476,53.219,127.8046,57.2431,302.8799,6.224e-05,7.02e-06,0.0,0 STARLINK-3874,1 52365U 22045AL  22340.45238554  .00000702  00000-0  62240-4 0  9998,2 52365  53.2190 127.8046 0002476  57.2431 302.8799 15.08841199 36386,6917.877,95.437,541.455,538.029,0.0
52365.0,STARLINK-3874,PAYLOAD,2022-12-06 17:12:58,15.08844169,0.0002594,53.219,126.6152,61.273,298.8522,3.6611e-05,2.94e-06,0.0,0 STARLINK-3874,1 52365U 22045AL  22340.71734445  .00000294  00000-0  36611-4 0  9996,2 52365  53.2190 126.6152 0002594  61.2730 298.8522 15.08844169 36422,6917.868,95.437,541.5269999999998,537.938,0.0
52365.0,STARLINK-3874,PAYLOAD,2022-12-07 09:06:50,15.08836978,0.0002604,53.2182,123.6409,58.3139,301.8107,6.1734e-05,6.94e-06,0.0,0 STARLINK-3874,1 52365U 22045AL  22341.37974901  .00000694  00000-0  61734-4 0  9990,2 52365  53.2182 123.6409 0002604  58.3139 301.8107 15.08836978 36521,6917.89,95.438,541.556,537.953,0.0
52365.0,STARLINK-3874,PAYLOAD,2022-12-07 18:39:09,15.08835688,0.0002579,53.2181,121.8564,56.1822,303.9415,-4.9207e-05,-1.071e-05,0.0,0 STARLINK-3874,1 52365U 22045AL  22341.77719468 -.00001071  00000-0 -49207-4 0  9992,2 52365  53.2181 121.8564 0002579  56.1822 303.9415 15.08835688 36586,6917.894,95.438,541.543,537.974,0.0
52365.0,STARLINK-3874,PAYLOAD,2022-12-08 10:33:00,15.08843685,0.0002293,53.2165,118.8816,53.057,307.0632,0.00012654,1.726e-05,0.0,0 STARLINK-3874,1 52365U 22045AL  22342.43958387  .00001726  00000-0  12654-3 0  9991,2 52365  53.2165 118.8816 0002293  53.0570 307.0632 15.08843685 36686,6917.869000000002,95.437,541.32,538.148,0.0
52365.0,STARLINK-3874,PAYLOAD,2022-12-08 15:19:09,15.08846655,0.0001877,53.2185,117.9914,27.81,332.2992,0.00017046,2.426e-05,0.0,0 STARLINK-3874,1 52365U 22045AL  22342.63829989  .00002426  00000-0  17046-3 0  9996,2 52365  53.2185 117.9914 0001877  27.8100 332.2992 15.08846655 36715,6917.86,95.437,541.024,538.427,0.0
52365.0,STARLINK-3874,PAYLOAD,2022-12-08 16:54:31,15.08852116,0.0002352,53.2182,117.6938,51.9836,308.1368,0.00019969,2.892e-05,0.0,0 STARLINK-3874,1 52365U 22045AL  22342.70453580  .00002892  00000-0  19969-3 0  9997,2 52365  53.2182 117.6938 0002352  51.9836 308.1368 15.08852116 36727,6917.843000000003,95.437,541.335,538.081,0.0
52365.0,STARLINK-3874,PAYLOAD,2022-12-09 19:56:06,15.08835986,0.0002224,53.2179,112.636,58.0513,302.0695,6.762100000000001e-05,7.88e-06,0.0,0 STARLINK-3874,1 52365U 22045AL  22343.83062912  .00000788  00000-0  67621-4 0  9998,2 52365  53.2179 112.6360 0002224  58.0513 302.0695 15.08835986 36895,6917.893,95.438,541.2959999999998,538.219,0.0
52365.0,STARLINK-3874,PAYLOAD,2022-12-10 13:25:21,15.08825341,0.0002364,53.2192,109.3695,39.3051,320.8113,8.300299999999999e-05,1.032e-05,0.0,0 STARLINK-3874,1 52365U 22045AL  22344.55927895  .00001032  00000-0  83003-4 0  9993,2 52365  53.2192 109.3695 0002364  39.3051 320.8113 15.08825341 37009,6917.925,95.438,541.4259999999998,538.155,0.0
52365.0,STARLINK-3874,PAYLOAD,2022-12-10 15:00:43,15.08854555,0.0001843,53.2193,109.0717,82.1323,277.9879,-0.00024812,-4.236e-05,0.0,0 STARLINK-3874,1 52365U 22045AL  22344.62550459 -.00004236  00000-0 -24812-3 0  9992,2 52365  53.2193 109.0717 0001843  82.1323 277.9879 15.08854555 37012,6917.8359999999975,95.437,540.976,538.4259999999998,0.0
52365.0,STARLINK-3874,PAYLOAD,2022-12-11 05:19:11,15.08780475,0.0002092,53.2185,106.3964,48.1468,311.9702,0.00084035,0.0001309,0.0,0 STARLINK-3874,1 52365U 22045AL  22345.22165963  .00013090  00000-0  84035-3 0  9990,2 52365  53.2185 106.3964 0002092  48.1468 311.9702 15.08780475 37109,6918.062,95.441,541.375,538.48,0.0
52365.0,STARLINK-3874,PAYLOAD,2022-12-11 11:40:44,15.08833913,0.0002216,53.2174,105.2042,50.9741,309.1448,0.00018671,2.684e-05,0.0,0 STARLINK-3874,1 52365U 22045AL  22345.48662930  .00002684  00000-0  18671-3 0  9994,2 52365  53.2174 105.2042 0002216  50.9741 309.1448 15.08833913 37141,6917.899,95.438,541.297,538.231,0.0
52365.0,STARLINK-3874,PAYLOAD,2022-12-11 13:16:07,15.08835645,0.0002162,53.2173,104.9069,50.9197,309.1987,0.00021494,3.134e-05,0.0,0 STARLINK-3874,1 52365U 22045AL  22345.55286856  .00003134  00000-0  21494-3 0  9999,2 52365  53.2173 104.9069 0002162  50.9197 309.1987 15.08835645 37153,6917.894,95.438,541.254,538.263,0.0
52365.0,STARLINK-3874,PAYLOAD,2022-12-11 19:37:40,15.08833792,0.0002074,53.2169,103.7176,50.4812,309.6363,0.0001808,2.59e-05,0.0,0 STARLINK-3874,1 52365U 22045AL  22345.81783420  .00002590  00000-0  18080-3 0  9999,2 52365  53.2169 103.7176 0002074  50.4812 309.6363 15.08833792 37193,6917.899,95.438,541.1990000000002,538.33,0.0
52365.0,STARLINK-3874,PAYLOAD,2022-12-12 11:31:31,15.08841404,0.0002157,53.2173,100.7441,46.9281,313.1892,0.00010867,1.442e-05,0.0,0 STARLINK-3874,1 52365U 22045AL  22346.48023088  .00001442  00000-0  10867-3 0  9990,2 52365  53.2173 100.7441 0002157  46.9281 313.1892 15.08841404 37299,6917.876,95.437,541.2330000000002,538.249,0.0
52365.0,STARLINK-3874,PAYLOAD,2022-12-12 17:53:04,15.08844566,0.0002209,53.2173,99.5552,44.7768,315.3402,0.00021173,3.083e-05,0.0,0 STARLINK-3874,1 52365U 22045AL  22346.74519101  .00003083  00000-0  21173-3 0  9990,2 52365  53.2173  99.5552 0002209  44.7768 315.3402 15.08844566 37339,6917.866,95.437,541.26,538.203,0.0
52365.0,STARLINK-3874,PAYLOAD,2022-12-12 19:28:27,15.08846662,0.0002227,53.2172,99.2578,44.5676,315.5495,0.0002758,4.105e-05,0.0,0 STARLINK-3874,1 52365U 22045AL  22346.81143055  .00004105  00000-0  27580-3 0  9993,2 52365  53.2172  99.2578 0002227  44.5676 315.5495 15.08846662 37343,6917.86,95.437,541.266,538.184,0.0
52365.0,STARLINK-3874,PAYLOAD,2022-12-13 08:11:32,15.08838379,0.0002189,53.2171,96.8791,45.5873,314.5298,-1.2831e-06,-3.09e-06,0.0,0 STARLINK-3874,1 52365U 22045AL  22347.34135280 -.00000309  00000-0 -12831-5 0  9992,2 52365  53.2171  96.8791 0002189  45.5873 314.5298 15.08838379 37424,6917.885,95.438,541.265,538.236,0.0
52365.0,STARLINK-3874,PAYLOAD,2022-12-13 14:33:05,15.08844939,0.0002192,53.2172,95.6898,45.5247,314.5924,0.0001651,2.341e-05,0.0,0 STARLINK-3874,1 52365U 22045AL  22347.60631049  .00002341  00000-0  16510-3 0  9997,2 52365  53.2172  95.6898 0002192  45.5247 314.5924 15.08844939 37468,6917.865,95.437,541.247,538.214,0.0
52365.0,STARLINK-3874,PAYLOAD,2022-12-13 19:19:14,15.08848261,0.0002187,53.2172,94.7978,44.1407,315.9759,0.00025426,3.762e-05,0.0,0 STARLINK-3874,1 52365U 22045AL  22347.80502920  .00003762  00000-0  25426-3 0  9998,2 52365  53.2172  94.7978 0002187  44.1407 315.9759 15.08848261 37490,6917.855,95.437,541.2330000000002,538.207,0.0
52365.0,STARLINK-3874,PAYLOAD,2022-12-14 11:13:05,15.08868885,0.0002214,53.2171,91.8241,32.39,327.7228,0.00085511,0.00013358,0.0,0 STARLINK-3874,1 52365U 22045AL  22348.46742243  .00013358  00000-0  85511-3 0  9998,2 52365  53.2171  91.8241 0002214  32.3900 327.7228 15.08868885 37595,6917.792,95.436,541.189,538.126,0.0
52365.0,STARLINK-3874,PAYLOAD,2022-12-14 20:45:24,15.08837466,0.0002572,53.2173,90.0399,33.7076,326.4079,6.6026e-06,-1.83e-06,0.0,0 STARLINK-3874,1 52365U 22045AL  22348.86486830 -.00000183  00000-0  66026-5 0  9994,2 52365  53.2173  90.0399 0002572  33.7076 326.4079 15.08837466 37656,6917.888000000001,95.438,541.5319999999998,537.974,0.0
52365.0,STARLINK-3874,PAYLOAD,2022-12-14 22:20:47,15.08836126,0.0002204,53.2172,89.7426,36.9027,323.2116,-3.9626e-05,-9.19e-06,0.0,0 STARLINK-3874,1 52365U 22045AL  22348.93110793 -.00000919  00000-0 -39626-4 0  9997,2 52365  53.2172  89.7426 0002204  36.9027 323.2116 15.08836126 37664,6917.892,95.438,541.2819999999998,538.2330000000002,0.0
52365.0,STARLINK-3874,PAYLOAD,2022-12-15 12:39:16,15.08837997,0.000226,53.2171,87.0661,35.394,324.7202,2.9073e-05,1.74e-06,0.0,0 STARLINK-3874,1 52365U 22045AL  22349.52726870  .00000174  00000-0  29073-4 0  9998,2 52365  53.2171  87.0661 0002260  35.3940 324.7202 15.08837997 37753,6917.887,95.438,541.315,538.188,0.0
52365.0,STARLINK-3874,PAYLOAD,2022-12-15 19:00:48,15.08846372,0.0002258,53.2168,85.8767,37.0131,323.1016,0.00010661,1.409e-05,0.0,0 STARLINK-3874,1 52365U 22045AL  22349.79222404  .00001409  00000-0  10661-3 0  9995,2 52365  53.2168  85.8767 0002258  37.0131 323.1016 15.08846372 37797,6917.861,95.437,541.288,538.164,0.0
52365.0,STARLINK-3874,PAYLOAD,2022-12-15 23:46:57,15.08840769,0.0002288,53.2166,84.9846,35.5186,324.5958,2.4883e-05,1.08e-06,0.0,0 STARLINK-3874,1 52365U 22045AL  22349.99094530  .00000108  00000-0  24883-4 0  9991,2 52365  53.2166  84.9846 0002288  35.5186 324.5958 15.08840769 37827,6917.878000000002,95.438,541.326,538.16,0.0
52365.0,STARLINK-3874,PAYLOAD,2022-12-16 12:30:02,15.08847103,0.0002282,53.2166,82.6058,35.6112,324.5032,0.0002735,4.068e-05,0.0,0 STARLINK-3874,1 52365U 22045AL  22350.52086433  .00004068  00000-0  27350-3 0  9995,2 52365  53.2166  82.6058 0002282  35.6112 324.5032 15.08847103 37902,6917.859,95.437,541.302,538.145,0.0
52365.0,STARLINK-3874,PAYLOAD,2022-12-16 20:26:58,15.08839566,0.0002293,53.2167,81.1189,36.7169,323.398,0.00021078,3.068e-05,0.0,0 STARLINK-3874,1 52365U 22045AL  22350.85206867  .00003068  00000-0  21078-3 0  9996,2 52365  53.2167  81.1189 0002293  36.7169 323.3980 15.08839566 37956,6917.882,95.438,541.3330000000002,538.16,0.0
